NORAD_CAT_ID,OBJECT_NAME,OBJECT_TYPE,EPOCH,MEAN_MOTION,ECCENTRICITY,INCLINATION,RA_OF_ASC_NODE,ARG_OF_PERICENTER,MEAN_ANOMALY,BSTAR,MEAN_MOTION_DOT,MEAN_MOTION_DDOT,TLE_LINE0,TLE_LINE1,TLE_LINE2,SEMIMAJOR_AXIS,PERIOD,APOGEE,PERIGEE,DECAYED
56481.0,STARLINK-6222,PAYLOAD,2023-08-16 22:00:00,15.6225868,0.0003616,70.0008,329.2829,280.7712,109.9014,-0.0118,-0.00947123,0.0,0 STARLINK-6222,1 56481U 23064AK  23228.91667824 -.00947123  00000-0 -11800-1 0  9998,2 56481  70.0008 329.2829 0003616 280.7712 109.9014 15.62258680 15787,6759.271,92.174,383.58,378.692,0.0
56481.0,STARLINK-6222,PAYLOAD,2023-08-17 14:00:01,15.60930791,0.0003445,70.001,327.4321,278.2624,259.0869,-0.011789,-0.009028,0.0,0 STARLINK-6222,1 56481U 23064AK  23229.58334491 -.00902800  00000-0 -11789-1 0  9992,2 56481  70.0010 327.4321 0003445 278.2624 259.0869 15.60930791 15896,6763.104,92.253,387.299,382.639,0.0
56481.0,STARLINK-6222,PAYLOAD,2023-08-18 06:00:02,15.59621661,0.0003524,70.0008,325.5845,271.4413,49.5077,-0.012064,-0.00880616,0.0,0 STARLINK-6222,1 56481U 23064AK  23230.25002315 -.00880616  00000-0 -12064-1 0  9992,2 56481  70.0008 325.5845 0003524 271.4413  49.5077 15.59621661 15997,6766.888,92.33,391.138,386.369,0.0
56481.0,STARLINK-6222,PAYLOAD,2023-08-18 20:00:01,15.58512592,0.0003602,70.0003,323.9709,279.5827,74.3311,-0.013653,-0.00948558,0.0,0 STARLINK-6222,1 56481U 23064AK  23230.83334491 -.00948558  00000-0 -13653-1 0  9994,2 56481  70.0003 323.9709 0003602 279.5827  74.3311 15.58512592 16087,6770.098,92.396,394.402,389.525,0.0
56481.0,STARLINK-6222,PAYLOAD,2023-08-19 12:00:00,15.57188358,0.0003511,70.0002,322.1306,279.8136,211.7824,-0.013882,-0.00920235,0.0,0 STARLINK-6222,1 56481U 23064AK  23231.50001157 -.00920235  00000-0 -13882-1 0  9995,2 56481  70.0002 322.1306 0003511 279.8136 211.7824 15.57188358 16191,6773.936,92.474,398.179,393.422,0.0
56481.0,STARLINK-6222,PAYLOAD,2023-08-20 14:00:01,15.55053909,0.0003528,70.0001,319.1466,278.9451,159.7011,-0.014524,-0.00892007,0.0,0 STARLINK-6222,1 56481U 23064AK  23232.58334491 -.00892007  00000-0 -14524-1 0  9993,2 56481  70.0001 319.1466 0003528 278.9451 159.7011 15.55053909 16360,6780.133,92.601,404.39,399.606,0.0
56481.0,STARLINK-6222,PAYLOAD,2023-08-21 04:00:00,15.53900153,0.000344,69.9996,317.5439,273.2004,188.8916,-0.014635,-0.00864097,0.0,0 STARLINK-6222,1 56481U 23064AK  23233.16667824 -.00864097  00000-0 -14635-1 0  9998,2 56481  69.9996 317.5439 0003440 273.2004 188.8916 15.53900153 16454,6783.489,92.67,407.687,403.02,0.0
56481.0,STARLINK-6222,PAYLOAD,2023-08-21 14:00:01,15.53090514,0.0003464,69.9995,316.4007,277.4846,354.1795,-0.015363,-0.00879275,0.0,0 STARLINK-6222,1 56481U 23064AK  23233.58334491 -.00879275  00000-0 -15363-1 0  9998,2 56481  69.9995 316.4007 0003464 277.4846 354.1795 15.53090514 16519,6785.846,92.718,410.062,405.36,0.0
56481.0,STARLINK-6222,PAYLOAD,2023-08-22 04:00:01,15.5190481,0.0003461,69.9995,314.8027,272.3498,18.7247,-0.0139,-0.0077107,0.0,0 STARLINK-6222,1 56481U 23064AK  23234.16668981 -.00771070  00000-0 -13900-1 0  9996,2 56481  69.9995 314.8027 0003461 272.3498  18.7247 15.51904810 16603,6789.302,92.789,413.517,408.817,0.0
56481.0,STARLINK-6222,PAYLOAD,2023-08-22 14:00:01,15.51204248,0.0003592,69.9997,313.663,279.0727,178.578,0.00072771,0.00042783,0.0,0 STARLINK-6222,1 56481U 23064AK  23234.58334491  .00042783  00000-0  72771-3 0  9991,2 56481  69.9997 313.6630 0003592 279.0727 178.5780 15.51204248 16678,6791.346,92.831,415.65,410.771,0.0
56481.0,STARLINK-6222,PAYLOAD,2023-08-23 04:00:00,15.51206396,0.0003557,69.9996,312.0678,271.5616,202.681,0.00069823,0.00041037,0.0,0 STARLINK-6222,1 56481U 23064AK  23235.16667824  .00041037  00000-0  69823-3 0  9990,2 56481  69.9996 312.0678 0003557 271.5616 202.6810 15.51206396 16766,6791.34,92.831,415.62,410.789,0.0
56481.0,STARLINK-6222,PAYLOAD,2023-08-24 22:00:00,15.51227463,0.0003447,69.9999,307.2827,271.689,252.3568,-0.00042518,-0.00025064,0.0,0 STARLINK-6222,1 56481U 23064AK  23236.91667824 -.00025064  00000-0 -42518-3 0  9990,2 56481  69.9999 307.2827 0003447 271.6890 252.3568 15.51227463  6066,6791.278,92.83,415.484,410.802,0.0
56481.0,STARLINK-6222,PAYLOAD,2023-08-25 14:00:01,15.51209192,0.0003482,70.0004,305.46,273.5017,12.3751,0.00048498,0.0002841,0.0,0 STARLINK-6222,1 56481U 23064AK  23237.58334491  .00028410  00000-0  48498-3 0  9994,2 56481  70.0004 305.4600 0003482 273.5017  12.3751 15.51209192 17133,6791.331,92.831,415.561,410.832,0.0
56481.0,STARLINK-6222,PAYLOAD,2023-08-25 22:00:01,15.5122047,0.0003476,70.0001,304.5484,269.5269,77.3271,-0.00017722,-0.0001056,0.0,0 STARLINK-6222,1 56481U 23064AK  23237.91668981 -.00010560  00000-0 -17722-3 0  9990,2 56481  70.0001 304.5484 0003476 269.5269  77.3271 15.51220470  6012,6791.299,92.83,415.524,410.803,0.0
56481.0,STARLINK-6222,PAYLOAD,2023-08-25 23:36:18,15.51224165,0.0003577,69.9971,304.366,274.2373,85.8405,-7.324e-06,-5.95e-06,0.0,0 STARLINK-6222,1 56481U 23064AK  23237.98354563 -.00000595  00000-0 -73240-5 0  9991,2 56481  69.9971 304.3660 0003577 274.2373  85.8405 15.51224165 17199,6791.288,92.83,415.582,410.724,0.0
56481.0,STARLINK-6222,PAYLOAD,2023-08-26 11:59:09,15.51225739,0.0003361,69.9972,302.9558,268.5157,91.5644,2.2678e-06,-3.2e-07,0.0,0 STARLINK-6222,1 56481U 23064AK  23238.49941890 -.00000032  00000-0  22678-5 0  9997,2 56481  69.9972 302.9558 0003361 268.5157  91.5644 15.51225739 16924,6791.283,92.83,415.431,410.866,0.0
56481.0,STARLINK-6222,PAYLOAD,2023-08-27 05:00:36,15.51217814,0.0003334,69.9973,301.0167,268.1237,91.9567,-1.0666e-06,-2.28e-06,0.0,0 STARLINK-6222,1 56481U 23064AK  23239.20875239 -.00000228  00000-0 -10666-5 0  9992,2 56481  69.9973 301.0167 0003334 268.1237  91.9567 15.51217814 17380,6791.306,92.83,415.436,410.907,0.0
56481.0,STARLINK-6222,PAYLOAD,2023-08-27 14:17:44,15.51225143,0.0003267,69.9976,299.959,265.1906,94.8907,6.6592e-06,2.26e-06,0.0,0 STARLINK-6222,1 56481U 23064AK  23239.59565410  .00000226  00000-0  66592-5 0  9996,2 56481  69.9976 299.9590 0003267 265.1906  94.8907 15.51225143 17444,6791.285,92.83,415.369,410.931,0.0
56481.0,STARLINK-6222,PAYLOAD,2023-08-28 16:36:20,15.51212124,0.0003108,69.9972,296.9616,279.2757,80.8077,-3.0024e-05,-1.927e-05,0.0,0 STARLINK-6222,1 56481U 23064AK  23240.69190323 -.00001927  00000-0 -30024-4 0  9997,2 56481  69.9972 296.9616 0003108 279.2757  80.8077 15.51212124 17617,6791.323,92.831,415.299,411.077,0.0
56481.0,STARLINK-6222,PAYLOAD,2023-08-28 21:15:04,15.51091912,0.0002593,69.9975,296.4336,287.8821,72.2082,-0.00028792,-0.0001696,0.0,0 STARLINK-6222,1 56481U 23064AK  23240.88546996 -.00016960  00000-0 -28792-3 0  9990,2 56481  69.9975 296.4336 0002593 287.8821  72.2082 15.51091912 17293,6791.674,92.838,415.3,411.778,0.0
56481.0,STARLINK-6222,PAYLOAD,2023-08-29 04:59:46,15.50813502,0.0003452,69.9971,295.5525,261.2324,98.8471,-0.00085783,-0.00049515,0.0,0 STARLINK-6222,1 56481U 23064AK  23241.20817765 -.00049515  00000-0 -85783-3 0  9997,2 56481  69.9971 295.5525 0003452 261.2324  98.8471 15.50813502 17694,6792.487,92.854,416.696,412.007,0.0
56481.0,STARLINK-6222,PAYLOAD,2023-08-29 15:50:48,15.50185763,0.0002894,69.9963,294.3201,295.1609,64.9276,-0.0021732,-0.00121327,0.0,0 STARLINK-6222,1 56481U 23064AK  23241.66028192 -.00121327  00000-0 -21732-2 0  9990,2 56481  69.9963 294.3201 0002894 295.1609  64.9276 15.50185763 17760,6794.32,92.892,418.152,414.219,0.0
56481.0,STARLINK-6222,PAYLOAD,2023-08-30 06:00:00,15.48185664,0.0003513,69.9993,292.7114,273.8881,136.0943,-0.019813,-0.00958616,0.0,0 STARLINK-6222,1 56481U 23064AK  23242.25001157 -.00958616  00000-0 -19813-1 0  9993,2 56481  69.9993 292.7114 0003513 273.8881 136.0943 15.48185664 17851,6800.171,93.012,424.425,419.647,0.0
56481.0,STARLINK-6222,PAYLOAD,2023-08-30 22:00:00,15.46828097,0.0003311,69.9987,290.8987,274.508,248.3913,-0.019054,-0.00873579,0.0,0 STARLINK-6222,1 56481U 23064AK  23242.91667824 -.00873579  00000-0 -19054-1 0  9996,2 56481  69.9987 290.8987 0003311 274.5080 248.3913 15.46828097 17964,6804.149,93.094,428.267,423.761,0.0
56481.0,STARLINK-6222,PAYLOAD,2023-08-31 14:00:01,15.45530685,0.0003485,69.9984,289.0897,277.5898,355.0724,-0.019942,-0.00885894,0.0,0 STARLINK-6222,1 56481U 23064AK  23243.58334491 -.00885894  00000-0 -19942-1 0  9990,2 56481  69.9984 289.0897 0003485 277.5898 355.0724 15.45530685 18063,6807.956,93.172,432.194,427.449,0.0
56481.0,STARLINK-6222,PAYLOAD,2023-08-31 22:00:01,15.44870766,0.0003428,69.9982,288.1864,272.392,54.0475,-0.020382,-0.00885228,0.0,0 STARLINK-6222,1 56481U 23064AK  23243.91668981 -.00885228  00000-0 -20382-1 0  9992,2 56481  69.9982 288.1864 0003428 272.3920  54.0475 15.44870766  5860,6809.895,93.212,434.094,429.425,0.0
56481.0,STARLINK-6222,PAYLOAD,2023-09-01 04:00:00,15.44421537,0.0003402,69.9984,287.5097,270.0736,6.0497,-0.021768,-0.00927382,0.0,0 STARLINK-6222,1 56481U 23064AK  23244.16667824 -.00927382  00000-0 -21768-1 0  9992,2 56481  69.9984 287.5097 0003402 270.0736   6.0497 15.44421537 18150,6811.215,93.239,435.397,430.763,0.0
56481.0,STARLINK-6222,PAYLOAD,2023-09-01 14:00:01,15.43576535,0.0003491,69.9981,286.3826,280.138,151.3049,-0.021405,-0.0088927,0.0,0 STARLINK-6222,1 56481U 23064AK  23244.58334491 -.00889270  00000-0 -21405-1 0  9990,2 56481  69.9981 286.3826 0003491 280.1380 151.3049 15.43576535  5970,6813.701,93.29,437.945,433.187,0.0
56481.0,STARLINK-6222,PAYLOAD,2023-09-01 22:00:00,15.42911242,0.0003331,69.998,285.4822,273.929,208.8815,-0.021612,-0.00878719,0.0,0 STARLINK-6222,1 56481U 23064AK  23244.91667824 -.00878719  00000-0 -21612-1 0  9992,2 56481  69.9980 285.4822 0003331 273.9290 208.8815 15.42911242  6021,6815.659,93.33,439.795,435.254,0.0
56481.0,STARLINK-6222,PAYLOAD,2023-09-02 04:00:00,15.4246623,0.0003407,69.9981,284.8075,273.6697,157.1292,-0.023459,-0.00934735,0.0,0 STARLINK-6222,1 56481U 23064AK  23245.16667824 -.00934735  00000-0 -23459-1 0  9992,2 56481  69.9981 284.8075 0003407 273.6697 157.1292 15.42466230 18319,6816.97,93.357,441.158,436.513,0.0
